[{"OBJECT_NAME":"SL-14 R/B","OBJECT_ID":"1986-006B","EPOCH":"2026-04-03T21:24:39.761568","MEAN_MOTION":14.86861725,"ECCENTRICITY":0.0076278,"INCLINATION":82.5261,"RA_OF_ASC_NODE":236.0132,"ARG_OF_PERICENTER":188.0699,"MEAN_ANOMALY":171.9299,"EPHEMERIS_TYPE":0,"CLASSIFICATION_TYPE":"U","NORAD_CAT_ID":16496,"ELEMENT_SET_NO":999,"REV_AT_EPOCH":15295,"BSTAR":0.00015646501,"MEAN_MOTION_DOT":1.498e-5,"MEAN_MOTION_DDOT":0},{"OBJECT_NAME":"COSMOS 1743","OBJECT_ID":"1986-034A","EPOCH":"2026-04-04T05:49:07.861440","MEAN_MOTION":15.60916209,"ECCENTRICITY":0.00057271,"INCLINATION":82.5321,"RA_OF_ASC_NODE":46.9694,"ARG_OF_PERICENTER":155.5299,"MEAN_ANOMALY":204.6231,"EPHEMERIS_TYPE":0,"CLASSIFICATION_TYPE":"U","NORAD_CAT_ID":16719,"ELEMENT_SET_NO":999,"REV_AT_EPOCH":18423,"BSTAR":0.00084022667,"MEAN_MOTION_DOT":0.00070811,"MEAN_MOTION_DDOT":0},{"OBJECT_NAME":"SL-14 R/B","OBJECT_ID":"1986-046B","EPOCH":"2026-04-04T06:24:58.156992","MEAN_MOTION":14.85618422,"ECCENTRICITY":0.00240635,"INCLINATION":82.4816,"RA_OF_ASC_NODE":56.0094,"ARG_OF_PERICENTER":140.4609,"MEAN_ANOMALY":219.8369,"EPHEMERIS_TYPE":0,"CLASSIFICATION_TYPE":"U","NORAD_CAT_ID":16792,"ELEMENT_SET_NO":999,"REV_AT_EPOCH":13020,"BSTAR":9.0074802e-5,"MEAN_MOTION_DOT":8.08e-6,"MEAN_MOTION_DDOT":0},{"OBJECT_NAME":"SL-14 R/B","OBJECT_ID":"1986-055B","EPOCH":"2026-04-04T01:24:15.587136","MEAN_MOTION":14.85667779,"ECCENTRICITY":0.0017421,"INCLINATION":82.5169,"RA_OF_ASC_NODE":102.822,"ARG_OF_PERICENTER":246.3591,"MEAN_ANOMALY":167.3933,"EPHEMERIS_TYPE":0,"CLASSIFICATION_TYPE":"U","NORAD_CAT_ID":16882,"ELEMENT_SET_NO":999,"REV_AT_EPOCH":12313,"BSTAR":8.3025702e-5,"MEAN_MOTION_DOT":7.45e-6,"MEAN_MOTION_DDOT":0},{"OBJECT_NAME":"AJISAI (EGS)","OBJECT_ID":"1986-061A","EPOCH":"2026-04-04T06:40:37.969536","MEAN_MOTION":12.44515625,"ECCENTRICITY":0.00113593,"INCLINATION":50.0121,"RA_OF_ASC_NODE":14.6631,"ARG_OF_PERICENTER":352.9052,"MEAN_ANOMALY":189.0277,"EPHEMERIS_TYPE":0,"CLASSIFICATION_TYPE":"U","NORAD_CAT_ID":16908,"ELEMENT_SET_NO":999,"REV_AT_EPOCH":47118,"BSTAR":5.591225e-6,"MEAN_MOTION_DOT":-9.7e-7,"MEAN_MOTION_DDOT":0},{"OBJECT_NAME":"SL-14 R/B","OBJECT_ID":"1987-024B","EPOCH":"2026-04-04T00:31:49.751904","MEAN_MOTION":14.86159383,"ECCENTRICITY":0.0018372,"INCLINATION":82.5263,"RA_OF_ASC_NODE":68.9474,"ARG_OF_PERICENTER":171.9283,"MEAN_ANOMALY":188.2233,"EPHEMERIS_TYPE":0,"CLASSIFICATION_TYPE":"U","NORAD_CAT_ID":17567,"ELEMENT_SET_NO":999,"REV_AT_EPOCH":9189,"BSTAR":9.0089506e-5,"MEAN_MOTION_DOT":8.17e-6,"MEAN_MOTION_DDOT":0},{"OBJECT_NAME":"COSMOS 1833","OBJECT_ID":"1987-027A","EPOCH":"2026-04-04T04:52:23.755872","MEAN_MOTION":14.13044326,"ECCENTRICITY":0.0022979,"INCLINATION":70.9164,"RA_OF_ASC_NODE":272.3912,"ARG_OF_PERICENTER":176.433,"MEAN_ANOMALY":183.6959,"EPHEMERIS_TYPE":0,"CLASSIFICATION_TYPE":"U","NORAD_CAT_ID":17589,"ELEMENT_SET_NO":999,"REV_AT_EPOCH":1392,"BSTAR":-0.00014154255,"MEAN_MOTION_DOT":-3.13e-6,"MEAN_MOTION_DDOT":0},{"OBJECT_NAME":"SL-16 R/B","OBJECT_ID":"1987-027B","EPOCH":"2026-04-03T19:41:18.110400","MEAN_MOTION":14.17168275,"ECCENTRICITY":0.00028715,"INCLINATION":71.0024,"RA_OF_ASC_NODE":223.5345,"ARG_OF_PERICENTER":79.1178,"MEAN_ANOMALY":281.0268,"EPHEMERIS_TYPE":0,"CLASSIFICATION_TYPE":"U","NORAD_CAT_ID":17590,"ELEMENT_SET_NO":999,"REV_AT_EPOCH":1890,"BSTAR":0.00016848181,"MEAN_MOTION_DOT":2.92e-6,"MEAN_MOTION_DDOT":0},{"OBJECT_NAME":"SL-14 R/B","OBJECT_ID":"1987-038B","EPOCH":"2026-04-03T21:29:17.399328","MEAN_MOTION":14.85395222,"ECCENTRICITY":0.00207489,"INCLINATION":82.4977,"RA_OF_ASC_NODE":273.0552,"ARG_OF_PERICENTER":82.0589,"MEAN_ANOMALY":278.2981,"EPHEMERIS_TYPE":0,"CLASSIFICATION_TYPE":"U","NORAD_CAT_ID":17912,"ELEMENT_SET_NO":999,"REV_AT_EPOCH":8297,"BSTAR":9.1783817e-5,"MEAN_MOTION_DOT":8.17e-6,"MEAN_MOTION_DDOT":0},{"OBJECT_NAME":"COSMOS 1844","OBJECT_ID":"1987-041A","EPOCH":"2026-04-04T03:22:02.437536","MEAN_MOTION":14.14561995,"ECCENTRICITY":0.00314931,"INCLINATION":70.9016,"RA_OF_ASC_NODE":340.4961,"ARG_OF_PERICENTER":340.5183,"MEAN_ANOMALY":19.4732,"EPHEMERIS_TYPE":0,"CLASSIFICATION_TYPE":"U","NORAD_CAT_ID":17973,"ELEMENT_SET_NO":999,"REV_AT_EPOCH":718,"BSTAR":0.00021408092,"MEAN_MOTION_DOT":3.65e-6,"MEAN_MOTION_DDOT":0},{"OBJECT_NAME":"SL-14 R/B","OBJECT_ID":"1987-055B","EPOCH":"2026-04-04T03:17:30.294816","MEAN_MOTION":14.85656177,"ECCENTRICITY":0.00192061,"INCLINATION":82.4995,"RA_OF_ASC_NODE":325.0498,"ARG_OF_PERICENTER":291.2083,"MEAN_ANOMALY":68.7082,"EPHEMERIS_TYPE":0,"CLASSIFICATION_TYPE":"U","NORAD_CAT_ID":18153,"ELEMENT_SET_NO":999,"REV_AT_EPOCH":7371,"BSTAR":7.597317e-5,"MEAN_MOTION_DOT":6.84e-6,"MEAN_MOTION_DDOT":0},{"OBJECT_NAME":"COSMOS 1867","OBJECT_ID":"1987-060A","EPOCH":"2026-04-03T17:32:48.556320","MEAN_MOTION":14.31507283,"ECCENTRICITY":0.0014935,"INCLINATION":65.0101,"RA_OF_ASC_NODE":236.5733,"ARG_OF_PERICENTER":280.0607,"MEAN_ANOMALY":79.8792,"EPHEMERIS_TYPE":0,"CLASSIFICATION_TYPE":"U","NORAD_CAT_ID":18187,"ELEMENT_SET_NO":999,"REV_AT_EPOCH":2352,"BSTAR":4.4788955e-5,"MEAN_MOTION_DOT":1.9e-7,"MEAN_MOTION_DDOT":0},{"OBJECT_NAME":"SL-14 R/B","OBJECT_ID":"1988-001B","EPOCH":"2026-04-04T06:27:21.701088","MEAN_MOTION":14.85557518,"ECCENTRICITY":0.00188641,"INCLINATION":82.5156,"RA_OF_ASC_NODE":171.3098,"ARG_OF_PERICENTER":149.7997,"MEAN_ANOMALY":210.431,"EPHEMERIS_TYPE":0,"CLASSIFICATION_TYPE":"U","NORAD_CAT_ID":18749,"ELEMENT_SET_NO":999,"REV_AT_EPOCH":4582,"BSTAR":8.0826209e-5,"MEAN_MOTION_DOT":7.25e-6,"MEAN_MOTION_DDOT":0},{"OBJECT_NAME":"COSMOS 1933","OBJECT_ID":"1988-020A","EPOCH":"2026-04-04T05:35:09.667392","MEAN_MOTION":15.18249829,"ECCENTRICITY":0.00054348,"INCLINATION":82.5141,"RA_OF_ASC_NODE":225.6335,"ARG_OF_PERICENTER":108.5829,"MEAN_ANOMALY":251.5996,"EPHEMERIS_TYPE":0,"CLASSIFICATION_TYPE":"U","NORAD_CAT_ID":18958,"ELEMENT_SET_NO":999,"REV_AT_EPOCH":5410,"BSTAR":0.00041235786,"MEAN_MOTION_DOT":8.476e-5,"MEAN_MOTION_DDOT":0},{"OBJECT_NAME":"SL-3 R/B","OBJECT_ID":"1988-032B","EPOCH":"2026-04-04T06:35:03.427872","MEAN_MOTION":15.20212368,"ECCENTRICITY":0.00270079,"INCLINATION":97.5224,"RA_OF_ASC_NODE":77.4456,"ARG_OF_PERICENTER":141.5814,"MEAN_ANOMALY":218.7351,"EPHEMERIS_TYPE":0,"CLASSIFICATION_TYPE":"U","NORAD_CAT_ID":19046,"ELEMENT_SET_NO":999,"REV_AT_EPOCH":5599,"BSTAR":0.00039105565,"MEAN_MOTION_DOT":8.489e-5,"MEAN_MOTION_DDOT":0},{"OBJECT_NAME":"SL-16 R/B","OBJECT_ID":"1988-039B","EPOCH":"2026-04-04T04:56:30.060672","MEAN_MOTION":14.19620771,"ECCENTRICITY":0.00238307,"INCLINATION":71.0174,"RA_OF_ASC_NODE":14.5934,"ARG_OF_PERICENTER":297.906,"MEAN_ANOMALY":61.9652,"EPHEMERIS_TYPE":0,"CLASSIFICATION_TYPE":"U","NORAD_CAT_ID":19120,"ELEMENT_SET_NO":999,"REV_AT_EPOCH":96200,"BSTAR":-4.83759e-6,"MEAN_MOTION_DOT":-5.9e-7,"MEAN_MOTION_DDOT":0},{"OBJECT_NAME":"COSMOS 1953","OBJECT_ID":"1988-050A","EPOCH":"2026-04-04T03:40:58.682208","MEAN_MOTION":15.28944195,"ECCENTRICITY":0.00118737,"INCLINATION":82.5061,"RA_OF_ASC_NODE":132.6283,"ARG_OF_PERICENTER":42.8589,"MEAN_ANOMALY":317.3574,"EPHEMERIS_TYPE":0,"CLASSIFICATION_TYPE":"U","NORAD_CAT_ID":19210,"ELEMENT_SET_NO":999,"REV_AT_EPOCH":4167,"BSTAR":0.0004494332,"MEAN_MOTION_DOT":0.00012696,"MEAN_MOTION_DDOT":0}]
