SL-14 R/B               
1 16496U 86006B   26093.89212687  .00001498  00000+0  15647-3 0  9996
2 16496  82.5261 236.0132 0076278 188.0699 171.9299 14.86861725152958
COSMOS 1743             
1 16719U 86034A   26094.24245210  .00070811  00000+0  84023-3 0  9992
2 16719  82.5321  46.9694 0005727 155.5299 204.6231 15.60916209184237
SL-14 R/B               
1 16792U 86046B   26094.26733978  .00000808  00000+0  90075-4 0  9995
2 16792  82.4816  56.0094 0024063 140.4609 219.8369 14.85618422130204
SL-14 R/B               
1 16882U 86055B   26094.05851374  .00000745  00000+0  83026-4 0  9991
2 16882  82.5169 102.8220 0017421 246.3591 167.3933 14.85667779123130
AJISAI (EGS)            
1 16908U 86061A   26094.27821724 -.00000097  00000+0  55912-5 0  9992
2 16908  50.0121  14.6631 0011359 352.9052 189.0277 12.44515625471181
SL-14 R/B               
1 17567U 87024B   26094.02210361  .00000817  00000+0  90090-4 0  9990
2 17567  82.5263  68.9474 0018372 171.9283 188.2233 14.86159383 91896
COSMOS 1833             
1 17589U 87027A   26094.20305273 -.00000313  00000+0 -14154-3 0  9993
2 17589  70.9164 272.3912 0022979 176.4330 183.6959 14.13044326 13922
SL-16 R/B               
1 17590U 87027B   26093.82034850  .00000292  00000+0  16848-3 0  9998
2 17590  71.0024 223.5345 0002871  79.1178 281.0268 14.17168275 18900
SL-14 R/B               
1 17912U 87038B   26093.89534027  .00000817  00000+0  91784-4 0  9992
2 17912  82.4977 273.0552 0020748  82.0589 278.2981 14.85395222 82970
COSMOS 1844             
1 17973U 87041A   26094.14030599  .00000365  00000+0  21408-3 0  9990
2 17973  70.9016 340.4961 0031493 340.5183  19.4732 14.14561995  7180
SL-14 R/B               
1 18153U 87055B   26094.13715619  .00000684  00000+0  75973-4 0  9999
2 18153  82.4995 325.0498 0019206 291.2083  68.7082 14.85656177 73710
COSMOS 1867             
1 18187U 87060A   26093.73111755  .00000019  00000+0  44789-4 0  9991
2 18187  65.0101 236.5733 0014935 280.0607  79.8792 14.31507283 23522
SL-14 R/B               
1 18749U 88001B   26094.26900117  .00000725  00000+0  80826-4 0  9994
2 18749  82.5156 171.3098 0018864 149.7997 210.4310 14.85557518 45829
COSMOS 1933             
1 18958U 88020A   26094.23275078  .00008476  00000+0  41236-3 0  9997
2 18958  82.5141 225.6335 0005434 108.5829 251.5996 15.18249829 54105
SL-3 R/B                
1 19046U 88032B   26094.27434523  .00008489  00000+0  39106-3 0  9992
2 19046  97.5224  77.4456 0027007 141.5814 218.7351 15.20212368 55999
SL-16 R/B               
1 19120U 88039B   26094.20590348 -.00000059  00000+0 -48376-5 0  9991
2 19120  71.0174  14.5934 0023830 297.9060  61.9652 14.19620771962004
COSMOS 1953             
1 19210U 88050A   26094.15345697  .00012696  00000+0  44943-3 0  9995
2 19210  82.5061 132.6283 0011873  42.8589 317.3574 15.28944195 41674
